STARLINK-5520           
1 57219U 23094B   26068.27637622  .00000089  00000+0  21674-4 0  9999
2 57219  43.0044  32.9342 0001316 267.5641  92.5051 15.02536069147052
PICO-02A021             
1 60538U 24149BY  26068.15390193  .00008488  00000+0  64833-3 0  9999
2 60538  97.6823 147.9080 0004195   9.5557 350.5747 15.02201963 84718
